STARLINK-30079          
1 56706U 23067U   26067.97519937  .00000722  00000+0  68530-4 0  9999
2 56706  43.0031 278.2482 0001339 262.3232  97.7458 15.02541537155550
QPS-SAR-11 (YAMATSUMI-I)
1 64340U 25125A   26068.25519236  .00007204  00000+0  57385-3 0  9990
2 64340  42.0098  22.3823 0010044 210.0400 149.9850 15.00627459 40603
